[{"OBJECT_NAME":"STARLINK-31413","OBJECT_ID":"2024-060F","EPOCH":"2026-03-09T13:06:50.522976","MEAN_MOTION":15.2757185,"ECCENTRICITY":0.0001123,"INCLINATION":43.0004,"RA_OF_ASC_NODE":260.435,"ARG_OF_PERICENTER":286.1881,"MEAN_ANOMALY":73.8847,"EPHEMERIS_TYPE":0,"CLASSIFICATION_TYPE":"U","NORAD_CAT_ID":59353,"ELEMENT_SET_NO":999,"REV_AT_EPOCH":11004,"BSTAR":-6.4073e-5,"MEAN_MOTION_DOT":-2.024e-5,"MEAN_MOTION_DDOT":0},{"OBJECT_NAME":"239ALFEROV (RS61S)","OBJECT_ID":"2025-155F","EPOCH":"2026-03-09T21:46:33.382848","MEAN_MOTION":15.29933217,"ECCENTRICITY":0.00084878,"INCLINATION":97.4469,"RA_OF_ASC_NODE":37.6373,"ARG_OF_PERICENTER":151.5904,"MEAN_ANOMALY":208.58,"EPHEMERIS_TYPE":0,"CLASSIFICATION_TYPE":"U","NORAD_CAT_ID":64881,"ELEMENT_SET_NO":999,"REV_AT_EPOCH":6561,"BSTAR":0.00067233359,"MEAN_MOTION_DOT":0.00019457,"MEAN_MOTION_DDOT":0}]
